[{"OBJECT_NAME":"STARLINK-5282","OBJECT_ID":"2022-141N","EPOCH":"2026-03-09T22:50:13.482816","MEAN_MOTION":15.08838571,"ECCENTRICITY":0.00016235,"INCLINATION":53.2192,"RA_OF_ASC_NODE":2.492,"ARG_OF_PERICENTER":96.8499,"MEAN_ANOMALY":263.2678,"EPHEMERIS_TYPE":0,"CLASSIFICATION_TYPE":"U","NORAD_CAT_ID":54169,"ELEMENT_SET_NO":999,"REV_AT_EPOCH":18590,"BSTAR":0.00043287428,"MEAN_MOTION_DOT":6.608e-5,"MEAN_MOTION_DDOT":0},{"OBJECT_NAME":"OBJECT J","OBJECT_ID":"2024-205J","EPOCH":"2026-03-09T23:28:57.561600","MEAN_MOTION":15.10710806,"ECCENTRICITY":0.00148701,"INCLINATION":97.4211,"RA_OF_ASC_NODE":142.3026,"ARG_OF_PERICENTER":147.8528,"MEAN_ANOMALY":212.3612,"EPHEMERIS_TYPE":0,"CLASSIFICATION_TYPE":"U","NORAD_CAT_ID":61902,"ELEMENT_SET_NO":999,"REV_AT_EPOCH":7320,"BSTAR":0.00056466438,"MEAN_MOTION_DOT":9.322e-5,"MEAN_MOTION_DDOT":0}]
